HIROGARI (OPUSAT-II)    
1 47930U 98067SG  21104.70828202  .00010778  00000-0  19442-3 0  9996
2 47930  51.6431 296.4586 0002801 149.0400 211.0755 15.50312882  4880
GUARANISAT-1            
1 47931U 98067SH  21104.83685297  .00007930  00000-0  14533-3 0  9998
2 47931  51.6427 295.8173 0002800 150.2163 209.8986 15.50285047  4906
SMOG-1                  
1 47964U 21022AJ  21105.10724856  .00000319  00000-0  25437-4 0  9997
2 47964  97.5627   8.5606 0020094 156.6140 309.3262 15.06894241  2334
MMSATS-1                
1 47976U 98067SJ  21104.59592150  .00002862  00000-0  59438-4 0  9998
2 47976  51.6458 297.1963 0002826 195.6189 164.4714 15.49320829  3641
